{"type": "FeatureCollection", "features": [ {"type": "Feature", "properties": {"norad_id": 32260, "name": "GPS BIIRM-4 (PRN 15)", "group": "gnss", "lat": 53.3244667174762, "lon": -169.68819551151455, "alt_km": 19749.56339749533, "timestamp": "2025-12-08T21:31:04.910009+00:00", "meta": {"OBJECT_NAME": "GPS BIIRM-4 (PRN 15)", "OBJECT_ID": "2007-047A", "EPOCH": "2025-12-07T18:25:34.370688", "MEAN_MOTION": 2.00564615, "ECCENTRICITY": 0.01643014, "INCLINATION": 53.9519, "RA_OF_ASC_NODE": 87.9639, "ARG_OF_PERICENTER": 85.1876, "MEAN_ANOMALY": 276.6737, "EPHEMERIS_TYPE": 0, "CLASSIFICATION_TYPE": "U", "NORAD_CAT_ID": 32260, "ELEMENT_SET_NO": 999, "REV_AT_EPOCH": 13297, "BSTAR": 0, "MEAN_MOTION_DOT": -1.8e-07, "MEAN_MOTION_DDOT": 0}, "tle": {"line1": "1 32260U 07047A   25341.76775892 -.00000018  00000+0  00000+0 0  9995", "line2": "2 32260  53.9519  87.9639 0164301  85.1876 276.6737  2.00564615132978"}}, "geometry": {"type": "Point", "coordinates": [-169.68819551151455, 53.3244667174762]}}, {"type": "Feature", "properties": {"norad_id": 32275, "name": "COSMOS 2433 (720)", "group": "gnss", "lat": 21.22527969825856, "lon": -27.565110592045947, "alt_km": 19136.338935776337, "timestamp": "2025-12-08T21:31:04.910022+00:00", "meta": {"OBJECT_NAME": "COSMOS 2433 (720)", "OBJECT_ID": "2007-052A", "EPOCH": "2025-12-07T22:15:39.436992", "MEAN_MOTION": 2.13103936, "ECCENTRICITY": 0.00054366, "INCLINATION": 65.6859, "RA_OF_ASC_NODE": 322.3673, "ARG_OF_PERICENTER": 253.7081, "MEAN_ANOMALY": 106.2283, "EPHEMERIS_TYPE": 0, "CLASSIFICATION_TYPE": "U", "NORAD_CAT_ID": 32275, "ELEMENT_SET_NO": 999, "REV_AT_EPOCH": 14098, "BSTAR": 0, "MEAN_MOTION_DOT": -4.9e-07, "MEAN_MOTION_DDOT": 0}, "tle": {"line1": "1 32275U 07052A   25341.92753978 -.00000049  00000+0  00000+0 0  9990", "line2": "2 32275  65.6859 322.3673 0005436 253.7081 106.2283  2.13103936140982"}}, "geometry": {"type": "Point", "coordinates": [-27.565110592045947, 21.22527969825856]}}, {"type": "Feature", "properties": {"norad_id": 32276, "name": "COSMOS 2432 (719)", "group": "gnss", "lat": -28.987263069375214, "lon": -52.04491114979198, "alt_km": 19106.036438390343, "timestamp": "2025-12-08T21:31:04.910035+00:00", "meta": {"OBJECT_NAME": "COSMOS 2432 (719)", "OBJECT_ID": "2007-052B", "EPOCH": "2025-12-08T02:14:19.806720", "MEAN_MOTION": 2.13103088, "ECCENTRICITY": 0.00112877, "INCLINATION": 65.7017, "RA_OF_ASC_NODE": 322.4859, "ARG_OF_PERICENTER": 312.3782, "MEAN_ANOMALY": 119.1922, "EPHEMERIS_TYPE": 0, "CLASSIFICATION_TYPE": "U", "NORAD_CAT_ID": 32276, "ELEMENT_SET_NO": 999, "REV_AT_EPOCH": 14101, "BSTAR": 0, "MEAN_MOTION_DOT": -4.9e-07, "MEAN_MOTION_DDOT": 0}, "tle": {"line1": "1 32276U 07052B   25342.09328480 -.00000049  00000+0  00000+0 0  9996", "line2": "2 32276  65.7017 322.4859 0011287 312.3782 119.1922  2.13103088141014"}}, "geometry": {"type": "Point", "coordinates": [-52.04491114979198, -28.987263069375214]}}, {"type": "Feature", "properties": {"norad_id": 32384, "name": "GPS BIIRM-5 (PRN 29)", "group": "gnss", "lat": -36.464428839671534, "lon": 132.6863396958147, "alt_km": 20147.40147919006, "timestamp": "2025-12-08T21:31:04.910047+00:00", "meta": {"OBJECT_NAME": "GPS BIIRM-5 (PRN 29)", "OBJECT_ID": "2007-062A", "EPOCH": "2025-12-08T07:46:47.506944", "MEAN_MOTION": 2.00576984, "ECCENTRICITY": 0.00322211, "INCLINATION": 55.1861, "RA_OF_ASC_NODE": 281.823, "ARG_OF_PERICENTER": 162.5952, "MEAN_ANOMALY": 10.0568, "EPHEMERIS_TYPE": 0, "CLASSIFICATION_TYPE": "U", "NORAD_CAT_ID": 32384, "ELEMENT_SET_NO": 999, "REV_AT_EPOCH": 13168, "BSTAR": 0, "MEAN_MOTION_DOT": -4.5e-07, "MEAN_MOTION_DDOT": 0}, "tle": {"line1": "1 32384U 07062A   25342.32416096 -.00000045  00000+0  00000+0 0  9990", "line2": "2 32384  55.1861 281.8230 0032221 162.5952  10.0568  2.00576984131682"}}, "geometry": {"type": "Point", "coordinates": [132.6863396958147, -36.464428839671534]}}, {"type": "Feature", "properties": {"norad_id": 32393, "name": "COSMOS 2434 (721)", "group": "gnss", "lat": -64.0189724757977, "lon": 117.35377814277219, "alt_km": 19147.05284127272, "timestamp": "2025-12-08T21:31:04.910059+00:00", "meta": {"OBJECT_NAME": "COSMOS 2434 (721)", "OBJECT_ID": "2007-065A", "EPOCH": "2025-12-08T05:21:15.731136", "MEAN_MOTION": 2.13101228, "ECCENTRICITY": 0.00044814, "INCLINATION": 64.3148, "RA_OF_ASC_NODE": 198.3559, "ARG_OF_PERICENTER": 71.0536, "MEAN_ANOMALY": 46.2753, "EPHEMERIS_TYPE": 0, "CLASSIFICATION_TYPE": "U", "NORAD_CAT_ID": 32393, "ELEMENT_SET_NO": 999, "REV_AT_EPOCH": 13970, "BSTAR": 0, "MEAN_MOTION_DOT": 5e-07, "MEAN_MOTION_DDOT": 0}, "tle": {"line1": "1 32393U 07065A   25342.22309874  .00000050  00000+0  00000+0 0  9992", "line2": "2 32393  64.3148 198.3559 0004481  71.0536  46.2753  2.13101228139704"}}, "geometry": {"type": "Point", "coordinates": [117.35377814277219, -64.0189724757977]}}, {"type": "Feature", "properties": {"norad_id": 32395, "name": "COSMOS 2436 (723)", "group": "gnss", "lat": 41.35522754385994, "lon": -136.53766843774045, "alt_km": 19089.48810576331, "timestamp": "2025-12-08T21:31:04.910071+00:00", "meta": {"OBJECT_NAME": "COSMOS 2436 (723)", "OBJECT_ID": "2007-065C", "EPOCH": "2025-12-08T02:01:11.627904", "MEAN_MOTION": 2.13100022, "ECCENTRICITY": 0.00177472, "INCLINATION": 64.3236, "RA_OF_ASC_NODE": 198.4308, "ARG_OF_PERICENTER": 9.2257, "MEAN_ANOMALY": 134.6131, "EPHEMERIS_TYPE": 0, "CLASSIFICATION_TYPE": "U", "NORAD_CAT_ID": 32395, "ELEMENT_SET_NO": 999, "REV_AT_EPOCH": 13965, "BSTAR": 0, "MEAN_MOTION_DOT": 5.1e-07, "MEAN_MOTION_DDOT": 0}, "tle": {"line1": "1 32395U 07065C   25342.08416236  .00000051  00000+0  00000+0 0  9990", "line2": "2 32395  64.3236 198.4308 0017747   9.2257 134.6131  2.13100022139656"}}, "geometry": {"type": "Point", "coordinates": [-136.53766843774045, 41.35522754385994]}}, {"type": "Feature", "properties": {"norad_id": 32711, "name": "GPS BIIRM-6 (PRN 07)", "group": "gnss", "lat": 25.35128933578719, "lon": -42.271101457990355, "alt_km": 20231.054467061902, "timestamp": "2025-12-08T21:31:04.910083+00:00", "meta": {"OBJECT_NAME": "GPS BIIRM-6 (PRN 07)", "OBJECT_ID": "2008-012A", "EPOCH": "2025-12-08T04:28:46.599744", "MEAN_MOTION": 2.00565366, "ECCENTRICITY": 0.02022567, "INCLINATION": 54.4765, "RA_OF_ASC_NODE": 157.5547, "ARG_OF_PERICENTER": 244.8969, "MEAN_ANOMALY": 112.9984, "EPHEMERIS_TYPE": 0, "CLASSIFICATION_TYPE": "U", "NORAD_CAT_ID": 32711, "ELEMENT_SET_NO": 999, "REV_AT_EPOCH": 12992, "BSTAR": 0, "MEAN_MOTION_DOT": 5.8e-07, "MEAN_MOTION_DDOT": 0}, "tle": {"line1": "1 32711U 08012A   25342.18665046  .00000058  00000+0  00000+0 0  9998", "line2": "2 32711  54.4765 157.5547 0202256 244.8969 112.9984  2.00565366129920"}}, "geometry": {"type": "Point", "coordinates": [-42.271101457990355, 25.35128933578719]}}, {"type": "Feature", "properties": {"norad_id": 35752, "name": "GPS BIIRM-8 (PRN 05)", "group": "gnss", "lat": 7.361090701977589, "lon": -150.02953479122644, "alt_km": 20178.683778898867, "timestamp": "2025-12-08T21:31:04.910094+00:00", "meta": {"OBJECT_NAME": "GPS BIIRM-8 (PRN 05)", "OBJECT_ID": "2009-043A", "EPOCH": "2025-12-08T03:13:53.099904", "MEAN_MOTION": 2.00565854, "ECCENTRICITY": 0.00519295, "INCLINATION": 56.0878, "RA_OF_ASC_NODE": 34.9648, "ARG_OF_PERICENTER": 81.9835, "MEAN_ANOMALY": 258.3784, "EPHEMERIS_TYPE": 0, "CLASSIFICATION_TYPE": "U", "NORAD_CAT_ID": 35752, "ELEMENT_SET_NO": 999, "REV_AT_EPOCH": 11952, "BSTAR": 0, "MEAN_MOTION_DOT": -8e-07, "MEAN_MOTION_DDOT": 0}, "tle": {"line1": "1 35752U 09043A   25342.13464236 -.00000080  00000+0  00000+0 0  9990", "line2": "2 35752  56.0878  34.9648 0051929  81.9835 258.3784  2.00565854119522"}}, "geometry": {"type": "Point", "coordinates": [-150.02953479122644, 7.361090701977589]}}, {"type": "Feature", "properties": {"norad_id": 36111, "name": "COSMOS 2456 (730)", "group": "gnss", "lat": 58.95954816802381, "lon": 128.5275956681587, "alt_km": 19128.68533335189, "timestamp": "2025-12-08T21:31:04.910106+00:00", "meta": {"OBJECT_NAME": "COSMOS 2456 (730)", "OBJECT_ID": "2009-070A", "EPOCH": "2025-12-08T11:09:04.675680", "MEAN_MOTION": 2.13103441, "ECCENTRICITY": 0.0003073, "INCLINATION": 64.8977, "RA_OF_ASC_NODE": 77.4841, "ARG_OF_PERICENTER": 297.5438, "MEAN_ANOMALY": 162.1384, "EPHEMERIS_TYPE": 0, "CLASSIFICATION_TYPE": "U", "NORAD_CAT_ID": 36111, "ELEMENT_SET_NO": 999, "REV_AT_EPOCH": 12436, "BSTAR": 0, "MEAN_MOTION_DOT": -1.5e-07, "MEAN_MOTION_DDOT": 0}, "tle": {"line1": "1 36111U 09070A   25342.46463745 -.00000015  00000+0  00000+0 0  9998", "line2": "2 36111  64.8977  77.4841 0003073 297.5438 162.1384  2.13103441124367"}}, "geometry": {"type": "Point", "coordinates": [128.5275956681587, 58.95954816802381]}}, {"type": "Feature", "properties": {"norad_id": 36112, "name": "COSMOS 2457 (733)", "group": "gnss", "lat": -18.32457047101472, "lon": -93.75224202776175, "alt_km": 19123.80773500685, "timestamp": "2025-12-08T21:31:04.910118+00:00", "meta": {"OBJECT_NAME": "COSMOS 2457 (733)", "OBJECT_ID": "2009-070B", "EPOCH": "2025-12-08T05:12:02.715840", "MEAN_MOTION": 2.13100811, "ECCENTRICITY": 0.0004735, "INCLINATION": 64.8829, "RA_OF_ASC_NODE": 77.3403, "ARG_OF_PERICENTER": 158.3782, "MEAN_ANOMALY": 240.2784, "EPHEMERIS_TYPE": 0, "CLASSIFICATION_TYPE": "U", "NORAD_CAT_ID": 36112, "ELEMENT_SET_NO": 999, "REV_AT_EPOCH": 12436, "BSTAR": 0, "MEAN_MOTION_DOT": -1.5e-07, "MEAN_MOTION_DDOT": 0}, "tle": {"line1": "1 36112U 09070B   25342.21669810 -.00000015  00000+0  00000+0 0  9993", "line2": "2 36112  64.8829  77.3403 0004735 158.3782 240.2784  2.13100811124369"}}, "geometry": {"type": "Point", "coordinates": [-93.75224202776175, -18.32457047101472]}}]}